{
  "streetNumbers": [
    {
      "streetNo": 1,
      "addressId": 308371,
      "entrance": null,
      "houseType": "F",
      "deliveryPointId": 523325,
      "postalCode": "0158",
      "duplicateNumberAndEntrance": false,
      "latitude": 59.910645,
      "longitude": 10.738696,
      "showHouseholds": false
    },
    {
      "streetNo": 2,
      "addressId": 709793,
      "entrance": ".2",
      "houseType": "F",
      "deliveryPointId": 539943,
      "postalCode": "0158",
      "duplicateNumberAndEntrance": false,
      "latitude": null,
      "longitude": null,
      "showHouseholds": false
    },
    {
      "streetNo": 3,
      "addressId": 627986,
      "entrance": null,
      "houseType": "F",
      "deliveryPointId": 523330,
      "postalCode": "0158",
      "duplicateNumberAndEntrance": false,
      "latitude": null,
      "longitude": null,
      "showHouseholds": false
    },
    {
      "streetNo": 5,
      "addressId": 308373,
      "entrance": null,
      "houseType": "F",
      "deliveryPointId": 523331,
      "postalCode": "0158",
      "duplicateNumberAndEntrance": false,
      "latitude": 59.910866,
      "longitude": 10.7389,
      "showHouseholds": false
    },
    {
      "streetNo": 7,
      "addressId": 1233545,
      "entrance": "B",
      "houseType": "F",
      "deliveryPointId": 2056734,
      "postalCode": "0158",
      "duplicateNumberAndEntrance": false,
      "latitude": null,
      "longitude": null,
      "showHouseholds": false
    },
    {
      "streetNo": 7,
      "addressId": 308374,
      "entrance": null,
      "houseType": "F",
      "deliveryPointId": 523332,
      "postalCode": "0158",
      "duplicateNumberAndEntrance": false,
      "latitude": 59.910976,
      "longitude": 10.73894,
      "showHouseholds": false
    },
    {
      "streetNo": 8,
      "addressId": 308375,
      "entrance": null,
      "houseType": "F",
      "deliveryPointId": 520673,
      "postalCode": "0158",
      "duplicateNumberAndEntrance": false,
      "latitude": 59.91176,
      "longitude": 10.7401285,
      "showHouseholds": false
    },
    {
      "streetNo": 9,
      "addressId": 627987,
      "entrance": null,
      "houseType": "F",
      "deliveryPointId": 523333,
      "postalCode": "0158",
      "duplicateNumberAndEntrance": false,
      "latitude": null,
      "longitude": null,
      "showHouseholds": false
    },
    {
      "streetNo": 11,
      "addressId": 308376,
      "entrance": null,
      "houseType": "F",
      "deliveryPointId": 523334,
      "postalCode": "0158",
      "duplicateNumberAndEntrance": false,
      "latitude": 59.911144,
      "longitude": 10.739116,
      "showHouseholds": false
    },
    {
      "streetNo": 13,
      "addressId": 627988,
      "entrance": null,
      "houseType": "F",
      "deliveryPointId": 523342,
      "postalCode": "0158",
      "duplicateNumberAndEntrance": false,
      "latitude": null,
      "longitude": null,
      "showHouseholds": false
    },
    {
      "streetNo": 15,
      "addressId": 881707,
      "entrance": null,
      "houseType": "A",
      "deliveryPointId": 1488070,
      "postalCode": "0158",
      "duplicateNumberAndEntrance": false,
      "latitude": 59.911327,
      "longitude": 10.739306,
      "showHouseholds": false
    },
    {
      "streetNo": 16,
      "addressId": 383840,
      "entrance": null,
      "houseType": "F",
      "deliveryPointId": 523347,
      "postalCode": "0158",
      "duplicateNumberAndEntrance": false,
      "latitude": 59.911953,
      "longitude": 10.7403,
      "showHouseholds": false
    },
    {
      "streetNo": 18,
      "addressId": 383841,
      "entrance": null,
      "houseType": "F",
      "deliveryPointId": 459779,
      "postalCode": "0158",
      "duplicateNumberAndEntrance": false,
      "latitude": 59.912346,
      "longitude": 10.74068,
      "showHouseholds": false
    },
    {
      "streetNo": 20,
      "addressId": 383842,
      "entrance": null,
      "houseType": "F",
      "deliveryPointId": 459780,
      "postalCode": "0158",
      "duplicateNumberAndEntrance": false,
      "latitude": 59.91258,
      "longitude": 10.7409725,
      "showHouseholds": false
    },
    {
      "streetNo": 21,
      "addressId": 383843,
      "entrance": null,
      "houseType": "F",
      "deliveryPointId": 528635,
      "postalCode": "0158",
      "duplicateNumberAndEntrance": false,
      "latitude": 59.911858,
      "longitude": 10.739794,
      "showHouseholds": false
    },
    {
      "streetNo": 26,
      "addressId": 308377,
      "entrance": null,
      "houseType": "F",
      "deliveryPointId": 449873,
      "postalCode": "0158",
      "duplicateNumberAndEntrance": false,
      "latitude": 59.913353,
      "longitude": 10.74184,
      "showHouseholds": false
    },
    {
      "streetNo": 28,
      "addressId": 308378,
      "entrance": null,
      "houseType": "F",
      "deliveryPointId": 449872,
      "postalCode": "0158",
      "duplicateNumberAndEntrance": false,
      "latitude": 59.913635,
      "longitude": 10.742215,
      "showHouseholds": false
    },
    {
      "streetNo": 30,
      "addressId": 383844,
      "entrance": null,
      "houseType": "F",
      "deliveryPointId": 449871,
      "postalCode": "0158",
      "duplicateNumberAndEntrance": false,
      "latitude": 59.913692,
      "longitude": 10.742315,
      "showHouseholds": false
    },
    {
      "streetNo": 32,
      "addressId": 309844,
      "entrance": null,
      "houseType": "F",
      "deliveryPointId": 449660,
      "postalCode": "0180",
      "duplicateNumberAndEntrance": false,
      "latitude": 59.91422,
      "longitude": 10.743036,
      "showHouseholds": false
    },
    {
      "streetNo": 34,
      "addressId": 309845,
      "entrance": null,
      "houseType": "F",
      "deliveryPointId": 449661,
      "postalCode": "0180",
      "duplicateNumberAndEntrance": false,
      "latitude": 59.914387,
      "longitude": 10.743194,
      "showHouseholds": false
    },
    {
      "streetNo": 35,
      "addressId": 308379,
      "entrance": null,
      "houseType": "F",
      "deliveryPointId": 431415,
      "postalCode": "0158",
      "duplicateNumberAndEntrance": false,
      "latitude": 59.913296,
      "longitude": 10.741453,
      "showHouseholds": false
    },
    {
      "streetNo": 36,
      "addressId": 309846,
      "entrance": null,
      "houseType": "F",
      "deliveryPointId": 449662,
      "postalCode": "0180",
      "duplicateNumberAndEntrance": false,
      "latitude": 59.914425,
      "longitude": 10.743242,
      "showHouseholds": false
    },
    {
      "streetNo": 38,
      "addressId": 309847,
      "entrance": null,
      "houseType": "F",
      "deliveryPointId": 449663,
      "postalCode": "0180",
      "duplicateNumberAndEntrance": false,
      "latitude": 59.914574,
      "longitude": 10.743456,
      "showHouseholds": false
    },
    {
      "streetNo": 39,
      "addressId": 711309,
      "entrance": null,
      "houseType": "F",
      "deliveryPointId": 619972,
      "postalCode": "0158",
      "duplicateNumberAndEntrance": false,
      "latitude": null,
      "longitude": null,
      "showHouseholds": false
    },
    {
      "streetNo": 40,
      "addressId": 309848,
      "entrance": null,
      "houseType": "F",
      "deliveryPointId": 456041,
      "postalCode": "0180",
      "duplicateNumberAndEntrance": false,
      "latitude": 59.915085,
      "longitude": 10.744197,
      "showHouseholds": false
    },
    {
      "streetNo": 41,
      "addressId": 308380,
      "entrance": null,
      "houseType": "F",
      "deliveryPointId": 431387,
      "postalCode": "0158",
      "duplicateNumberAndEntrance": false,
      "latitude": 59.913578,
      "longitude": 10.741864,
      "showHouseholds": false
    },
    {
      "streetNo": 42,
      "addressId": 2803677,
      "entrance": null,
      "houseType": "F",
      "deliveryPointId": 4667734,
      "postalCode": "0180",
      "duplicateNumberAndEntrance": false,
      "latitude": 59.91509,
      "longitude": 10.745414,
      "showHouseholds": false
    },
    {
      "streetNo": 43,
      "addressId": 383845,
      "entrance": null,
      "houseType": "F",
      "deliveryPointId": 431368,
      "postalCode": "0158",
      "duplicateNumberAndEntrance": false,
      "latitude": 59.9137,
      "longitude": 10.742028,
      "showHouseholds": false
    },
    {
      "streetNo": 44,
      "addressId": 309850,
      "entrance": null,
      "houseType": "F",
      "deliveryPointId": 1217971,
      "postalCode": "0180",
      "duplicateNumberAndEntrance": false,
      "latitude": 59.915886,
      "longitude": 10.745885,
      "showHouseholds": false
    },
    {
      "streetNo": 45,
      "addressId": 3126932,
      "entrance": null,
      "houseType": "F",
      "deliveryPointId": 5205828,
      "postalCode": "0158",
      "duplicateNumberAndEntrance": false,
      "latitude": 59.91398,
      "longitude": 10.742261,
      "showHouseholds": false
    }
  ]
}
